NORAD_CAT_ID,OBJECT_NAME,OBJECT_TYPE,EPOCH,MEAN_MOTION,ECCENTRICITY,INCLINATION,RA_OF_ASC_NODE,ARG_OF_PERICENTER,MEAN_ANOMALY,BSTAR,MEAN_MOTION_DOT,MEAN_MOTION_DDOT,TLE_LINE0,TLE_LINE1,TLE_LINE2,SEMIMAJOR_AXIS,PERIOD,APOGEE,PERIGEE,DECAYED
51814.0,STARLINK-3599,PAYLOAD,2023-11-09 15:25:48,15.08864232,0.0001074,53.2155,189.6181,90.4163,269.6953,0.00024849,3.672e-05,0.0,0 STARLINK-3599,1 51814U 22017AY  23313.64292788  .00003672  00000-0  24849-3 0  9997,2 51814  53.2155 189.6181 0001074  90.4163 269.6953 15.08864232 95723,6917.806,95.436,540.414,538.928,0.0
51814.0,STARLINK-3599,PAYLOAD,2023-11-09 21:47:21,15.08848299,0.0001888,53.2149,188.4295,43.3659,316.7482,0.0010366,0.00016252,0.0,0 STARLINK-3599,1 51814U 22017AY  23313.90789336  .00016252  00000-0  10366-2 0  9992,2 51814  53.2149 188.4295 0001888  43.3659 316.7482 15.08848299 95646,6917.855,95.437,541.026,538.414,0.0
51814.0,STARLINK-3599,PAYLOAD,2023-11-10 00:58:07,15.08852973,0.0001141,53.2152,187.8344,97.6691,262.443,-7.2826e-05,-1.447e-05,0.0,0 STARLINK-3599,1 51814U 22017AY  23314.04036713 -.00001447  00000-0 -72826-4 0  9995,2 51814  53.2152 187.8344 0001141  97.6691 262.4430 15.08852973 95787,6917.841,95.437,540.495,538.916,0.0
51814.0,STARLINK-3599,PAYLOAD,2023-11-10 08:55:03,15.0884325,0.0001374,53.2153,186.3479,91.6618,268.4532,0.00016109,2.277e-05,0.0,0 STARLINK-3599,1 51814U 22017AY  23314.37156956  .00002277  00000-0  16109-3 0  9994,2 51814  53.2153 186.3479 0001374  91.6618 268.4532 15.08843250 95712,6917.87,95.437,540.686,538.785,0.0
51814.0,STARLINK-3599,PAYLOAD,2023-11-10 20:02:45,15.08842487,0.0001174,53.2157,184.2641,95.3872,264.7255,0.00010725,1.42e-05,0.0,0 STARLINK-3599,1 51814U 22017AY  23314.83524934  .00001420  00000-0  10725-3 0  9997,2 51814  53.2157 184.2641 0001174  95.3872 264.7255 15.08842487 95908,6917.873,95.437,540.55,538.926,0.0
51814.0,STARLINK-3599,PAYLOAD,2023-11-11 00:48:54,15.08853614,0.0001254,53.2155,183.372,95.9111,264.2024,9.2656e-05,1.188e-05,0.0,0 STARLINK-3599,1 51814U 22017AY  23315.03396470  .00001188  00000-0  92656-4 0  9997,2 51814  53.2155 183.3720 0001254  95.9111 264.2024 15.08853614 95931,6917.839,95.437,540.571,538.836,0.0
51814.0,STARLINK-3599,PAYLOAD,2023-11-11 19:53:32,15.08836244,0.0001415,53.2148,179.7998,102.1472,257.9679,7.8934e-05,9.68e-06,0.0,0 STARLINK-3599,1 51814U 22017AY  23315.82885408  .00000968  00000-0  78934-4 0  9996,2 51814  53.2148 179.7998 0001415 102.1472 257.9679 15.08836244 96058,6917.892,95.438,540.736,538.778,0.0
51814.0,STARLINK-3599,PAYLOAD,2023-11-11 21:28:56,15.08835226,0.0001385,53.2152,179.5027,107.3847,252.7297,4.5105e-05,4.3e-06,0.0,0 STARLINK-3599,1 51814U 22017AY  23315.89509471  .00000430  00000-0  45105-4 0  9994,2 51814  53.2152 179.5027 0001385 107.3847 252.7297 15.08835226 95948,6917.895,95.438,540.718,538.802,0.0
51814.0,STARLINK-3599,PAYLOAD,2023-11-12 00:39:42,15.08835199,0.0001431,53.215,178.9086,93.3501,266.7655,2.0779e-05,4.3e-07,0.0,0 STARLINK-3599,1 51814U 22017AY  23316.02757589  .00000043  00000-0  20779-4 0  9995,2 51814  53.2150 178.9086 0001431  93.3501 266.7655 15.08835199 95961,6917.895,95.438,540.75,538.77,0.0
51814.0,STARLINK-3599,PAYLOAD,2023-11-12 21:19:42,15.08846935,0.0001411,53.2154,175.0448,90.1659,269.9495,0.00019305,2.786e-05,0.0,0 STARLINK-3599,1 51814U 22017AY  23316.88869094  .00002786  00000-0  19305-3 0  9992,2 51814  53.2154 175.0448 0001411  90.1659 269.9495 15.08846935 96094,6917.859,95.437,540.7,538.748,0.0
51814.0,STARLINK-3599,PAYLOAD,2023-11-13 00:30:28,15.08850616,0.0001386,53.2155,174.4494,93.3977,266.7173,0.00017936,2.569e-05,0.0,0 STARLINK-3599,1 51814U 22017AY  23317.02116847  .00002569  00000-0  17936-3 0  9997,2 51814  53.2155 174.4494 0001386  93.3977 266.7173 15.08850616 96233,6917.848,95.437,540.672,538.754,0.0
51814.0,STARLINK-3599,PAYLOAD,2023-11-14 00:21:16,15.08840431,0.0001371,53.2145,169.989,88.6513,271.4636,8.9815e-05,1.142e-05,0.0,0 STARLINK-3599,1 51814U 22017AY  23318.01477307  .00001142  00000-0  89815-4 0  9990,2 51814  53.2145 169.9890 0001371  88.6513 271.4636 15.08840431 96385,6917.879,95.438,540.693,538.796,0.0
51814.0,STARLINK-3599,PAYLOAD,2023-11-14 21:01:17,15.0883966,0.0001135,53.2167,166.1248,88.9227,271.1895,-2.7365e-07,-2.92e-06,0.0,0 STARLINK-3599,1 51814U 22017AY  23318.87589554 -.00000292  00000-0 -27365-6 0  9993,2 51814  53.2167 166.1248 0001135  88.9227 271.1895 15.08839660 96395,6917.881,95.438,540.532,538.961,0.0
51814.0,STARLINK-3599,PAYLOAD,2023-11-15 00:12:03,15.08842329,0.0001318,53.2161,165.5295,86.3991,273.7152,1.2925e-05,-8.2e-07,0.0,0 STARLINK-3599,1 51814U 22017AY  23319.00837337 -.00000082  00000-0  12925-4 0  9994,2 51814  53.2161 165.5295 0001318  86.3991 273.7152 15.08842329 96410,6917.873,95.437,540.65,538.826,0.0
51814.0,STARLINK-3599,PAYLOAD,2023-11-15 16:05:55,15.08833102,0.0001223,53.2165,162.5558,87.3074,272.8058,9.0984e-05,1.16e-05,0.0,0 STARLINK-3599,1 51814U 22017AY  23319.67077730  .00001160  00000-0  90984-4 0  9998,2 51814  53.2165 162.5558 0001223  87.3074 272.8058 15.08833102 96639,6917.901,95.438,540.613,538.92,0.0
51814.0,STARLINK-3599,PAYLOAD,2023-11-15 20:52:04,15.08836109,0.0001198,53.2164,161.6637,87.2426,272.8703,0.00011143,1.486e-05,0.0,0 STARLINK-3599,1 51814U 22017AY  23319.86949579  .00001486  00000-0  11143-3 0  9998,2 51814  53.2164 161.6637 0001198  87.2426 272.8703 15.08836109 96544,6917.892,95.438,540.586,538.929,0.0
51814.0,STARLINK-3599,PAYLOAD,2023-11-16 00:02:50,15.08836288,0.0001211,53.2162,161.0692,88.5304,271.5827,0.00010993,1.462e-05,0.0,0 STARLINK-3599,1 51814U 22017AY  23320.00197617  .00001462  00000-0  10993-3 0  9990,2 51814  53.2162 161.0692 0001211  88.5304 271.5827 15.08836288 96565,6917.892,95.438,540.594,538.919,0.0
51814.0,STARLINK-3599,PAYLOAD,2023-11-16 23:53:37,15.0883919,0.0001231,53.216,156.6088,88.9391,271.1742,7.0502e-05,8.34e-06,0.0,0 STARLINK-3599,1 51814U 22017AY  23320.99557701  .00000834  00000-0  70502-4 0  9997,2 51814  53.2160 156.6088 0001231  88.9391 271.1742 15.08839190 96831,6917.883,95.438,540.599,538.896,0.0
51814.0,STARLINK-3599,PAYLOAD,2023-11-17 06:15:10,15.08838882,0.0001277,53.2156,155.4195,90.7854,269.3285,7.8309e-05,9.59e-06,0.0,0 STARLINK-3599,1 51814U 22017AY  23321.26053747  .00000959  00000-0  78309-4 0  9990,2 51814  53.2156 155.4195 0001277  90.7854 269.3285 15.08838882 96756,6917.884,95.438,540.632,538.865,0.0
51814.0,STARLINK-3599,PAYLOAD,2023-11-18 12:27:30,15.08840561,0.0001454,53.2145,149.7699,89.1606,270.9553,6.7707e-05,7.9e-06,0.0,0 STARLINK-3599,1 51814U 22017AY  23322.51909861  .00000790  00000-0  67707-4 0  9999,2 51814  53.2145 149.7699 0001454  89.1606 270.9553 15.08840561 97061,6917.879,95.438,540.75,538.738,0.0
51814.0,STARLINK-3599,PAYLOAD,2023-11-18 21:59:48,15.08839218,0.000141,53.2148,147.9857,89.1112,271.0042,5.7206e-05,6.23e-06,0.0,0 STARLINK-3599,1 51814U 22017AY  23322.91653882  .00000623  00000-0  57206-4 0  9990,2 51814  53.2148 147.9857 0001410  89.1112 271.0042 15.08839218 97000,6917.883,95.438,540.723,538.772,0.0
51814.0,STARLINK-3599,PAYLOAD,2023-11-19 18:39:49,15.08845626,0.0001356,53.2147,144.1194,90.584,269.5307,9.8546e-05,1.281e-05,0.0,0 STARLINK-3599,1 51814U 22017AY  23323.77765289  .00001281  00000-0  98546-4 0  9993,2 51814  53.2147 144.1194 0001356  90.5840 269.5307 15.08845626 97258,6917.863,95.437,540.666,538.79,0.0
51814.0,STARLINK-3599,PAYLOAD,2023-11-20 12:09:04,15.08839635,0.0001405,53.2154,140.8486,91.473,268.6423,4.5024e-05,4.29e-06,0.0,0 STARLINK-3599,1 51814U 22017AY  23324.50629721  .00000429  00000-0  45024-4 0  9991,2 51814  53.2154 140.8486 0001405  91.4730 268.6423 15.08839635 97247,6917.882,95.438,540.718,538.775,0.0
51814.0,STARLINK-3599,PAYLOAD,2023-11-20 18:30:36,15.08841009,0.0001438,53.2161,139.6591,94.8865,265.2291,4.2145e-05,3.83e-06,0.0,0 STARLINK-3599,1 51814U 22017AY  23324.77125599  .00000383  00000-0  42145-4 0  9994,2 51814  53.2161 139.6591 0001438  94.8865 265.2291 15.08841009 97402,6917.877,95.437,540.737,538.748,0.0
51814.0,STARLINK-3599,PAYLOAD,2023-11-21 11:59:51,15.08839053,0.0001439,53.216,136.3882,94.4011,265.7145,8.3101e-06,-1.56e-06,0.0,0 STARLINK-3599,1 51814U 22017AY  23325.49989794 -.00000156  00000-0  83101-5 0  9996,2 51814  53.2160 136.3882 0001439  94.4011 265.7145 15.08839053 97395,6917.883,95.438,540.744,538.753,0.0
51814.0,STARLINK-3599,PAYLOAD,2023-11-21 18:21:23,15.08839291,0.0001436,53.2161,135.1988,94.3799,265.7358,8.2811e-06,-1.56e-06,0.0,0 STARLINK-3599,1 51814U 22017AY  23325.76485787 -.00000156  00000-0  82811-5 0  9996,2 51814  53.2161 135.1988 0001436  94.3799 265.7358 15.08839291 97434,6917.883,95.438,540.741,538.754,0.0
51814.0,STARLINK-3599,PAYLOAD,2023-11-22 10:15:14,15.08841188,0.0001392,53.2162,132.225,93.7782,266.337,6.9173e-05,8.13e-06,0.0,0 STARLINK-3599,1 51814U 22017AY  23326.42725517  .00000813  00000-0  69173-4 0  9992,2 51814  53.2162 132.2250 0001392  93.7782 266.3370 15.08841188 97654,6917.877,95.437,540.705,538.779,0.0
51814.0,STARLINK-3599,PAYLOAD,2023-11-22 16:36:47,15.0884299,0.000139,53.2163,131.0356,94.2416,265.8735,7.9441e-05,9.77e-06,0.0,0 STARLINK-3599,1 51814U 22017AY  23326.69221379  .00000977  00000-0  79441-4 0  9998,2 51814  53.2163 131.0356 0001390  94.2416 265.8735 15.08842990 97579,6917.871,95.437,540.698,538.775,0.0
51814.0,STARLINK-3599,PAYLOAD,2023-11-23 11:41:25,15.08834318,0.0001423,53.2166,127.468,98.4063,261.7091,4.4019e-05,4.13e-06,0.0,0 STARLINK-3599,1 51814U 22017AY  23327.48710218  .00000413  00000-0  44019-4 0  9999,2 51814  53.2166 127.4680 0001423  98.4063 261.7091 15.08834318 97814,6917.898,95.438,540.747,538.778,0.0
51814.0,STARLINK-3599,PAYLOAD,2023-11-23 16:27:35,15.08830655,0.0001374,53.2166,126.576,92.7067,267.4082,7.0504e-06,-1.76e-06,0.0,0 STARLINK-3599,1 51814U 22017AY  23327.68582643 -.00000176  00000-0  70504-5 0  9996,2 51814  53.2166 126.5760 0001374  92.7067 267.4082 15.08830655 97722,6917.909,95.438,540.724,538.823,0.0
